OBJECT_NAME,OBJECT_ID,EPOCH,MEAN_MOTION,ECCENTRICITY,INCLINATION,RA_OF_ASC_NODE,ARG_OF_PERICENTER,MEAN_ANOMALY,EPHEMERIS_TYPE,CLASSIFICATION_TYPE,NORAD_CAT_ID,ELEMENT_SET_NO,REV_AT_EPOCH,BSTAR,MEAN_MOTION_DOT,MEAN_MOTION_DDOT
SES-2,2011-049A,2026-07-15T21:30:38.147904,1.00270194,.0002741,0.1299,90.9887,23.6394,54.7544,0,U,37809,999,5425,0,-.206E-5,0
ARABSAT-5C,2011-049B,2026-07-15T22:01:04.600704,1.00271764,.00035422,0.0510,22.2874,108.6598,153.0613,0,U,37810,999,5432,0,.113E-5,0
EUTELSAT 7 WEST A,2011-051A,2026-07-15T21:16:38.625888,1.00270965,.00046284,0.0617,349.9513,138.2501,117.3555,0,U,37816,999,5416,0,-.71E-6,0
QUETZSAT 1,2011-054A,2026-07-14T23:19:01.442208,1.00271182,.00025825,0.0106,33.2728,89.6621,82.6551,0,U,37826,999,5015,0,-.25E-5,0
INTELSAT 18 (IS-18),2011-056A,2026-07-15T14:13:30.485280,1.00274455,.00018888,0.0273,285.8659,199.7046,201.2331,0,U,37834,999,5409,0,.43E-6,0
EUTELSAT 16A,2011-057A,2026-07-15T20:17:23.189856,1.00274124,.00057881,0.0406,22.3426,89.2826,142.4199,0,U,37836,999,762,0,.94E-6,0
VIASAT-1,2011-059A,2026-07-15T23:44:30.539040,1.00271609,.00021759,0.0247,58.5591,51.3659,64.9269,0,U,37843,999,4761,0,0,0
ASIASAT 7,2011-069A,2026-07-15T20:42:50.230368,1.00271733,.00012272,0.0172,68.5326,17.0831,264.3104,0,U,37933,999,4514,0,-.344E-5,0
BEIDOU-2 IGSO-5,2011-073A,2026-07-02T17:30:18.330912,1.00270596,.01145273,47.6496,271.3544,222.0502,141.5350,0,U,37948,999,5329,0,-.128E-5,0
LUCH-5A,2011-074B,2026-07-15T10:44:29.613408,1.00273119,.0002635,8.8235,73.3905,60.7728,127.2423,0,U,37951,999,5333,0,-.64E-6,0
NIGCOMSAT 1R,2011-077A,2026-07-15T22:07:33.978720,1.00271151,.00025423,0.0292,112.9226,235.9540,319.2543,0,U,38014,999,5324,0,.134E-5,0
WGS F4 (USA 233),2012-003A,2026-07-15T20:02:38.694048,1.00269599,.00005659,0.0178,39.8346,116.4364,166.4712,0,U,38070,999,4443,0,-.225E-5,0
SES-4,2012-007A,2026-07-15T16:41:13.495776,1.00272796,.00024605,0.0221,44.8522,71.8199,45.1710,0,U,38087,999,5251,0,-.178E-5,0
BEIDOU-2 G5,2012-008A,2026-07-15T20:29:19.318848,1.00270397,.0007303,3.6427,69.5109,268.5441,321.6262,0,U,38091,999,5265,0,.45E-6,0
MUOS-1,2012-009A,2026-07-15T23:07:35.817600,1.00271730,.00568231,5.5329,47.1142,3.5063,130.1317,0,U,38093,999,5273,0,-.14E-5,0
INTELSAT 22 (IS-22),2012-011A,2026-07-15T22:15:55.677600,1.00271872,.00018533,0.0158,42.6258,81.1126,216.1062,0,U,38098,999,747,0,-.69E-6,0
APSTAR-7,2012-013A,2026-07-15T22:17:18.046176,1.00270982,.00029545,0.0231,88.7235,37.4711,218.3989,0,U,38107,999,5209,0,-.112E-5,0
YAHSAT 1B,2012-016A,2026-07-13T01:42:49.313376,1.00273295,.00034999,0.0884,88.7099,45.3416,230.2049,0,U,38245,999,4586,0,.124E-5,0
AEHF-2 (USA 235),2012-019A,2026-07-15T21:50:43.777824,1.00272188,.00021986,6.7147,57.2695,58.9284,128.7477,0,U,38254,999,727,0,-.148E-5,0
JCSAT-13,2012-023A,2026-07-15T20:48:04.728096,1.00269928,.00024773,0.0182,26.2772,98.1089,245.3379,0,U,38331,999,5182,0,-.367E-5,0
VINASAT-2,2012-023B,2026-07-15T22:33:01.539360,1.00270403,.00021703,0.0267,318.1809,158.7763,286.9198,0,U,38332,999,4694,0,-.339E-5,0
NIMIQ 6,2012-026A,2026-07-15T22:17:55.573152,1.00271574,.00026984,0.0697,265.4060,215.0234,56.7201,0,U,38342,999,5070,0,-.184E-5,0
ZHONGXING-2A,2012-028A,2026-07-15T22:23:24.960192,1.00270221,.00013964,1.5264,83.4962,40.4835,243.8969,0,U,38352,999,5158,0,-.304E-5,0
INTELSAT 19 (IS-19),2012-030A,2026-07-15T19:17:26.809728,1.00271388,.00031978,0.0179,26.2491,101.7096,261.0415,0,U,38356,999,5073,0,-.67E-6,0
ECHOSTAR 17,2012-035A,2026-07-13T07:29:52.916064,1.00271168,.0002068,0.0038,99.8957,10.3898,186.2739,0,U,38551,999,5132,0,-.78E-6,0
METEOSAT-10 (MSG-3),2012-035B,2026-07-15T21:55:13.346688,1.00271019,.00011815,4.7379,60.8778,16.6551,185.0701,0,U,38552,999,5114,0,-.2E-6,0
SES-5,2012-036A,2026-07-15T20:14:08.502144,1.00271333,.00019665,0.0450,321.8811,151.4519,128.8610,0,U,38652,999,4474,0,.23E-6,0
INTELSAT 20 (IS-20),2012-043A,2026-07-15T22:14:55.773024,1.00272905,.0001385,0.0123,66.6866,109.7940,159.5195,0,U,38740,999,5103,0,-.35E-6,0
HYLAS 2,2012-043B,2026-07-15T21:34:45.252768,1.00270204,.00024449,2.4994,80.7173,57.6411,46.4829,0,U,38741,999,5106,0,-.269E-5,0
INTELSAT 21 (IS-21),2012-045A,2026-07-15T19:56:15.587808,1.00272766,.00015453,0.0518,250.4496,235.5039,48.7780,0,U,38749,999,5081,0,-.295E-5,0
ASTRA 2F,2012-051A,2026-07-15T22:03:26.873856,1.00269646,.00029455,0.0875,255.8802,287.7532,109.1431,0,U,38778,999,4142,0,.139E-5,0
GSAT-10,2012-051B,2026-07-15T22:19:02.878752,1.00272779,.00074138,0.0894,264.6103,189.6517,257.2575,0,U,38779,999,5038,0,-.175E-5,0
