SES-2                   
1 37809U 11049A   26196.89627486 -.00000206  00000+0  00000+0 0  9993
2 37809   0.1299  90.9887 0002741  23.6394  54.7544  1.00270194 54251
ARABSAT-5C              
1 37810U 11049B   26196.91741436  .00000113  00000+0  00000+0 0  9996
2 37810   0.0510  22.2874 0003542 108.6598 153.0613  1.00271764 54324
EUTELSAT 7 WEST A       
1 37816U 11051A   26196.88655817 -.00000071  00000+0  00000+0 0  9992
2 37816   0.0617 349.9513 0004628 138.2501 117.3555  1.00270965 54168
QUETZSAT 1              
1 37826U 11054A   26195.97154447 -.00000250  00000+0  00000+0 0  9997
2 37826   0.0106  33.2728 0002582  89.6621  82.6551  1.00271182 50159
INTELSAT 18 (IS-18)     
1 37834U 11056A   26196.59271395  .00000043  00000+0  00000+0 0  9998
2 37834   0.0273 285.8659 0001888 199.7046 201.2331  1.00274455 54091
EUTELSAT 16A            
1 37836U 11057A   26196.84540729  .00000094  00000+0  00000+0 0  9995
2 37836   0.0406  22.3426 0005788  89.2826 142.4199  1.00274124  7627
VIASAT-1                
1 37843U 11059A   26196.98924235  .00000000  00000+0  00000+0 0  9995
2 37843   0.0247  58.5591 0002175  51.3659  64.9269  1.00271609 47617
ASIASAT 7               
1 37933U 11069A   26196.86308137 -.00000344  00000+0  00000+0 0  9992
2 37933   0.0172  68.5326 0001227  17.0831 264.3104  1.00271733 45147
BEIDOU-2 IGSO-5         
1 37948U 11073A   26183.72937883 -.00000128  00000+0  00000+0 0  9990
2 37948  47.6496 271.3544 0114527 222.0502 141.5350  1.00270596 53296
LUCH-5A                 
1 37951U 11074B   26196.44756497 -.00000064  00000+0  00000+0 0  9997
2 37951   8.8235  73.3905 0002635  60.7728 127.2423  1.00273119 53335
NIGCOMSAT 1R            
1 38014U 11077A   26196.92192105  .00000134  00000+0  00000+0 0  9991
2 38014   0.0292 112.9226 0002542 235.9540 319.2543  1.00271151 53244
WGS F4 (USA 233)        
1 38070U 12003A   26196.83517007 -.00000225  00000+0  00000+0 0  9997
2 38070   0.0178  39.8346 0000565 116.4364 166.4712  1.00269599 44433
SES-4                   
1 38087U 12007A   26196.69529509 -.00000178  00000+0  00000+0 0  9990
2 38087   0.0221  44.8522 0002460  71.8199  45.1710  1.00272796 52510
BEIDOU-2 G5             
1 38091U 12008A   26196.85369582  .00000045  00000+0  00000+0 0  9999
2 38091   3.6427  69.5109 0007303 268.5441 321.6262  1.00270397 52657
MUOS-1                  
1 38093U 12009A   26196.96360900 -.00000140  00000+0  00000+0 0  9996
2 38093   5.5329  47.1142 0056823   3.5063 130.1317  1.00271730 52733
INTELSAT 22 (IS-22)     
1 38098U 12011A   26196.92772775 -.00000069  00000+0  00000+0 0  9997
2 38098   0.0158  42.6258 0001853  81.1126 216.1062  1.00271872  7471
APSTAR-7                
1 38107U 12013A   26196.92868109 -.00000112  00000+0  00000+0 0  9996
2 38107   0.0231  88.7235 0002954  37.4711 218.3989  1.00270982 52098
YAHSAT 1B               
1 38245U 12016A   26194.07140409  .00000124  00000+0  00000+0 0  9994
2 38245   0.0884  88.7099 0003499  45.3416 230.2049  1.00273295 45865
AEHF-2 (USA 235)        
1 38254U 12019A   26196.91022891 -.00000148  00000+0  00000+0 0  9993
2 38254   6.7147  57.2695 0002198  58.9284 128.7477  1.00272188  7270
JCSAT-13                
1 38331U 12023A   26196.86672139 -.00000367  00000+0  00000+0 0  9997
2 38331   0.0182  26.2772 0002477  98.1089 245.3379  1.00269928 51828
VINASAT-2               
1 38332U 12023B   26196.93960115 -.00000339  00000+0  00000+0 0  9999
2 38332   0.0267 318.1809 0002170 158.7763 286.9198  1.00270403 46946
NIMIQ 6                 
1 38342U 12026A   26196.92911543 -.00000184  00000+0  00000+0 0  9991
2 38342   0.0697 265.4060 0002698 215.0234  56.7201  1.00271574 50709
ZHONGXING-2A            
1 38352U 12028A   26196.93292778 -.00000304  00000+0  00000+0 0  9991
2 38352   1.5264  83.4962 0001396  40.4835 243.8969  1.00270221 51581
INTELSAT 19 (IS-19)     
1 38356U 12030A   26196.80378252 -.00000067  00000+0  00000+0 0  9992
2 38356   0.0179  26.2491 0003197 101.7096 261.0415  1.00271388 50736
ECHOSTAR 17             
1 38551U 12035A   26194.31241801 -.00000078  00000+0  00000+0 0  9999
2 38551   0.0038  99.8957 0002068  10.3898 186.2739  1.00271168 51320
METEOSAT-10 (MSG-3)     
1 38552U 12035B   26196.91334892 -.00000020  00000+0  00000+0 0  9998
2 38552   4.7379  60.8778 0001181  16.6551 185.0701  1.00271019 51140
SES-5                   
1 38652U 12036A   26196.84315396  .00000023  00000+0  00000+0 0  9992
2 38652   0.0450 321.8811 0001966 151.4519 128.8610  1.00271333 44742
INTELSAT 20 (IS-20)     
1 38740U 12043A   26196.92703441 -.00000035  00000+0  00000+0 0  9993
2 38740   0.0123  66.6866 0001385 109.7940 159.5195  1.00272905 51035
HYLAS 2                 
1 38741U 12043B   26196.89913487 -.00000269  00000+0  00000+0 0  9992
2 38741   2.4994  80.7173 0002444  57.6411  46.4829  1.00270204 51068
INTELSAT 21 (IS-21)     
1 38749U 12045A   26196.83073597 -.00000295  00000+0  00000+0 0  9994
2 38749   0.0518 250.4496 0001545 235.5039  48.7780  1.00272766 50818
ASTRA 2F                
1 38778U 12051A   26196.91906104  .00000139  00000+0  00000+0 0  9997
2 38778   0.0875 255.8802 0002945 287.7532 109.1431  1.00269646 41423
GSAT-10                 
1 38779U 12051B   26196.92989443 -.00000175  00000+0  00000+0 0  9997
2 38779   0.0894 264.6103 0007413 189.6517 257.2575  1.00272779 50385
